name,lat,lon,説明,住所
001-1 学校給食センター（元横山）北側,35.6659988888889,139.338137777778,ポスター掲示場,元横山町１－２９
001-2 第一小学校東側コンクリート塀,35.6611877777778,139.336985277778,ポスター掲示場,元横山町２－１４－３
001-3 椎名内科向かい側植込,35.6625311111111,139.333441388889,ポスター掲示場,本町９－８先
001-4 元横西公園北側,35.6662894444444,139.332906111111,ポスター掲示場,元横山町３－２４－２４先
001-5 第一小学校南側コンクリート塀,35.6607113888889,139.33645,ポスター掲示場,元横山町２－１４－３
001-6 妙薬寺北側ブロック塀,35.66339,139.335225833333,ポスター掲示場,元横山町２－１８－１
001-7 第一小学校西側フェンス,35.6614238888889,139.335961111111,ポスター掲示場,元横山町２－１４－３
001-8 元横一丁目公園フェンス,35.6641916666667,139.341185833333,ポスター掲示場,元横山町１－１１－５先
002-1 第二小学校南側フェンス,35.6615508333333,139.322287777778,ポスター掲示場,八木町７－１
002-2 八木町公園東側植込,35.6616586111111,139.321228888889,ポスター掲示場,八木町８
002-3 藤和シティホームズ西八王子西側,35.6604672222222,139.317404166667,ポスター掲示場,追分町１０－６
002-4 善能寺北側塀,35.6629102777778,139.322550555556,ポスター掲示場,元本郷町１－１
002-5 エコス大横店南側フェンス,35.6611180555556,139.329178888889,ポスター掲示場,大横町１－８
002-6 第二小学校北側フェンス東側,35.6619080555556,139.322956666667,ポスター掲示場,八木町７－１
003-1 いちょう公園南大通り側,35.6549705555556,139.330952777778,ポスター掲示場,寺町２８
003-2 子安公園西側,35.6528244444444,139.3348925,ポスター掲示場,子安町４－３１
003-3 念仏院西側大谷石塀,35.6564338888889,139.328100277778,ポスター掲示場,上野町１－６
003-4 天神公園北側フェンス,35.6574055555556,139.329475277778,ポスター掲示場,天神町２３
003-5 西放射線中町公園（風車の広場）北側,35.6589461111111,139.335409166667,ポスター掲示場,中町９－１１
003-6 子安濱村こかげ公園南側,35.6535394444444,139.336513055556,ポスター掲示場,子安町４－１３
003-7 第三小学校北側フェンス,35.6557597222222,139.332015833333,ポスター掲示場,寺町２９－１５
003-8 子安公園南側,35.6521602777778,139.335058333333,ポスター掲示場,子安町４－３１
004-1 竹の花公園北側,35.6624855555556,139.341806388889,ポスター掲示場,新町５
004-2 クリエイトホール北側植込,35.6586811111111,139.340031666667,ポスター掲示場,東町５－６
004-3 第四小学校西側フェンス,35.6574944444444,139.345245277778,ポスター掲示場,明神町２－１５－１
004-4 第四小学校南側フェンス,35.6569305555556,139.345838888889,ポスター掲示場,明神町２－１５－１
004-5 北田南公園北側,35.6603141666667,139.347457222222,ポスター掲示場,明神町１－１１９－５
004-6 明神町なかよし公園北西フェンス,35.6568236111111,139.347141666667,ポスター掲示場,明神町２－９
004-7 第五中学校北側植込,35.6618202777778,139.343792222222,ポスター掲示場,明神町４－１９－１
004-8 都立南多摩中等教育学校南側植込,35.6596308333333,139.343188333333,ポスター掲示場,明神町４－２０－１
005-1 せきれい児童遊園フェンス前植込,35.6603752777778,139.306321388889,ポスター掲示場,長房町４６先
005-2 千人町桑の実児童公園西側先,35.6575988888889,139.309893055556,ポスター掲示場,千人町３－４
005-3 千人保育園東側フェンス,35.6589036111111,139.310206666667,ポスター掲示場,千人町３－５－１７
005-4 第五小学校東側入口脇フェンス,35.6596369444444,139.308967222222,ポスター掲示場,千人町３－７－７
005-5 第五小学校西側入口脇フェンス,35.6584091666667,139.307908888889,ポスター掲示場,千人町３－７－７
005-6 都立八王子桑志高等学校敷地西側市道フェンス,35.6569658333333,139.304279166667,ポスター掲示場,千人町４－８－１
005-7 西八王子駅北口自転車駐車場南側ブロック,35.656535,139.312123333333,ポスター掲示場,千人町３－１－２５
005-8 千人町どんぐり広場北側,35.65794,139.306358611111,ポスター掲示場,千人町４－７－２６先
006-1 清流寺東側空地,35.6523688888889,139.344102777778,ポスター掲示場,子安町１－２２－２５
006-2 子安東公園南側植込,35.6511627777778,139.340354722222,ポスター掲示場,子安町２－２－１１
006-3 いずみの森義務教育学校北側フェンス,35.6503266666667,139.341165,ポスター掲示場,子安町２－１８－１
006-4 八王子ハローワーク西側フェンス,35.6538413888889,139.340893333333,ポスター掲示場,子安町１－１２－８
006-5 由井中学校西側フェンス,35.6444983333333,139.339329444444,ポスター掲示場,片倉町５３３
006-6 いずみの森義務教育学校仮設グラウンド,35.6469266666667,139.339820555556,ポスター掲示場,子安町２－３０－１
006-7 六本杉公園北側フェンス,35.6492394444444,139.340728055556,ポスター掲示場,子安町２－２２
006-8 子安市民センター西側,35.650905,139.344431666667,ポスター掲示場,子安町２－６－１
006-9 六本杉公園南側フェンス,35.6486247222222,139.341456666667,ポスター掲示場,子安町２－２２
007-1 バス停「南大通り」南側空地,35.6554913888889,139.326069444444,ポスター掲示場,上野町３２－１
007-2 金剛院南側ブロック塀,35.65655,139.327170555556,ポスター掲示場,上野町３９－２
007-3 千人町分教会南側コンクリート塀,35.6565038888889,139.316330555556,ポスター掲示場,台町４－４０－１２
007-4 台町見晴公園南側,35.6545675,139.323546944444,ポスター掲示場,台町３－７
007-5 八王子拓真高等学校西側植込,35.6546047222222,139.316376388889,ポスター掲示場,台町３－２５－１
007-6 第七小学校北側フェンス,35.6572063888889,139.323310277778,ポスター掲示場,台町４－２－１
007-7 第七小学校東側フェンス,35.6565066666667,139.324294722222,ポスター掲示場,台町４－２－１
007-8 小児・障害メディカルセンター　東側フェンス,35.657545,139.318674166667,ポスター掲示場,台町４－３３－１３
008-1 （株）サンエス西側ブロック塀,35.6743222222222,139.3161525,ポスター掲示場,中野上町５－１０－５
008-2 中野保育園南側フェンス,35.6665827777778,139.324700833333,ポスター掲示場,中野上町１－２２－１１
008-3 第九小学校南側フェンス,35.6702797222222,139.3246675,ポスター掲示場,中野上町２－１４－１
008-4 第九小学校西側フェンス,35.6708922222222,139.323701666667,ポスター掲示場,中野上町２－１４－１
008-5 第二中学校西側フェンス,35.6701591666667,139.314396111111,ポスター掲示場,中野上町４－２８－１
008-6 日本機械工業（株）八王子工場北西側フェンス,35.6713125,139.317543055556,ポスター掲示場,中野上町２－３１
008-7 八王子市補修センター北側ブロック塀,35.6695463888889,139.320083888889,ポスター掲示場,中野上町４－１０－１５
009-1 東三まちの広場フェンス,35.6693780555556,139.334135277778,ポスター掲示場,暁町１－３０
009-2 第十小学校北側フェンス,35.6662044444444,139.344215833333,ポスター掲示場,大和田町７－５－１
009-3 第十小学校南東側フェンス,35.6650561111111,139.343917777778,ポスター掲示場,大和田町７－５－１
009-4 西花田原公園東側（入口沿い）,35.668735,139.346181666667,ポスター掲示場,富士見町２１
009-5 大和田七丁目アパート１号棟前駐車場フェンス,35.6675016666667,139.343951388889,ポスター掲示場,大和田町７－６－１
009-6 八王子郵便局北側,35.6670966666667,139.340786111111,ポスター掲示場,大和田町７－２１－１
009-7 富士見町緑地,35.6682222222222,139.350956111111,ポスター掲示場,富士見町４－８
009-8 大和田市民センター東側植込,35.6630644444444,139.352109722222,ポスター掲示場,大和田町５－９－１
009-9 ひよどり山中学校南門横フェンス,35.6753975,139.338874722222,ポスター掲示場,暁町３－１－１
010-1 ひよどり公園北側フェンス,35.6743502777778,139.333632777778,ポスター掲示場,暁町２－１３
010-2 中田遺跡公園南側,35.6737580555556,139.32386,ポスター掲示場,中野山王３－１２
010-3 清水小学校東側,35.6759216666667,139.320540833333,ポスター掲示場,中野山王３－２５－１
010-4 信用土地（株）西側コンクリート塀,35.6712458333333,139.328332777778,ポスター掲示場,中野山王１－６－７先
010-5 中野北小学校北側フェンス,35.6746936111111,139.326591388889,ポスター掲示場,中野山王３－１－１
010-6 中野北小学校南側フェンス,35.6736530555556,139.327289722222,ポスター掲示場,中野山王３－１－１
010-7 中田遺跡公園北側,35.6745475,139.324050555556,ポスター掲示場,中野山王３－１２
011-1 北の原公園北側,35.6676505555556,139.355100277778,ポスター掲示場,大和田町４－２５
011-2 大和田小学校北側フェンス,35.6660663888889,139.354383333333,ポスター掲示場,大和田町４－１９－１
011-3 大和田小学校南東側フェンス,35.6648741666667,139.355143333333,ポスター掲示場,大和田町４－１９－１
011-4 大和台公園北側フェンス,35.6681936111111,139.356368333333,ポスター掲示場,大和田町４－３２－８
011-5 石川道公園南側,35.6683808333333,139.352630555556,ポスター掲示場,大和田町５－４０
011-6 南原公園東南,35.6624183333333,139.358142777778,ポスター掲示場,大和田町２－８
011-7 大和田公園西側,35.6648433333333,139.359080833333,ポスター掲示場,大和田町２－２０
012-1 富士森公園こども広場北側,35.6530855555556,139.323298055556,ポスター掲示場,台町２－２
012-2 富士森公園東側,35.6512166666667,139.3253125,ポスター掲示場,台町２－２
012-3 野球場西側植込,35.6521194444444,139.320950833333,ポスター掲示場,台町２－２
012-4 八王子市教育センター正門横フェンス,35.6494686111111,139.319868055556,ポスター掲示場,散田町２－３７－１
012-5 第七中学校南面フェンス,35.6502502777778,139.316438055556,ポスター掲示場,散田町２－２－１
012-6 朝日ヶ丘富士見公園,35.6479147222222,139.313681944444,ポスター掲示場,散田町２－６０－１２
012-7 散田南公園北側フェンス,35.6480919444444,139.310596666667,ポスター掲示場,散田町２－６８－８先
013-1 谷野北公園北側,35.6847827777778,139.321259722222,ポスター掲示場,みつい台２－４７
013-2 左入公園南側,35.6796711111111,139.328651944444,ポスター掲示場,みつい台１－６
013-3 谷野東公園,35.6816822222222,139.330111111111,ポスター掲示場,みつい台１－１４
013-4 谷野南公園東側,35.6817063888889,139.325403611111,ポスター掲示場,みつい台２－８
013-5 中野市民センター北側植込,35.6817963888889,139.31879,ポスター掲示場,中野町２７２６－７
013-6 工学院大学南側フェンス,35.6826780555556,139.317608611111,ポスター掲示場,中野町２６６５－１
013-7 甲の原体育館東側植込,35.6808833333333,139.318771388889,ポスター掲示場,中野町２７２６－８
013-8 甲の原北公園北側,35.6816780555556,139.320807777778,ポスター掲示場,中野町２６３４－１１先
014-1 元本郷公園西側,35.6640113888889,139.312590277778,ポスター掲示場,元本郷町４－９
014-2 商工会議所駐車場北フェンス,35.6643577777778,139.328798333333,ポスター掲示場,大横町１１－１
014-3 東平岡公園北側,35.6645722222222,139.3263175,ポスター掲示場,平岡町３１
014-4 市営住宅元本郷団地４号棟北側,35.6645827777778,139.319655833333,ポスター掲示場,元本郷町２－１２
014-5 コンビニ向かい側民家塀,35.6641905555556,139.31446,ポスター掲示場,元本郷町４－１１－１
014-6 市営住宅元本郷団地１号棟北側駐車場前,35.6648388888889,139.317004166667,ポスター掲示場,元本郷町３－１４－１
014-7 八王子市役所来庁者駐車場東側,35.6665713888889,139.315068888889,ポスター掲示場,元本郷町４－２１
015-1 緑町霊園北側フェンス,35.64955,139.324430277778,ポスター掲示場,緑町２２２
015-2 第六中学校東側フェンス,35.6529791666667,139.330733888889,ポスター掲示場,上野町９７
015-3 第六中学校西側フェンス,35.6529355555556,139.329254166667,ポスター掲示場,上野町９７
015-4 上野町公園西側フェンス,35.6535047222222,139.327793055556,ポスター掲示場,上野町２７
015-5 八王子実践高校北側フェンス,35.6522511111111,139.329860277778,ポスター掲示場,台町１－５
015-6 八王子実践高校体育館南側フェンス,35.6501233333333,139.327909722222,ポスター掲示場,台町１－１２
015-7 緑町もみじ公園東側植込,35.6474958333333,139.329097222222,ポスター掲示場,緑町１２０－３
030-1 都立陵南公園西側植込,35.648175,139.292253611111,ポスター掲示場,東浅川町３１
030-2 長泉寺東側市道フェンス,35.6530066666667,139.289445555556,ポスター掲示場,長房町１４４２先
030-3 長房町消防団機具置場フェンス,35.6517013888889,139.286003888889,ポスター掲示場,長房町１２８９－２８
030-4 原宿町会館前フェンス,35.646355,139.288925277778,ポスター掲示場,東浅川町２６９
030-5 都立陵南公園北側フェンス,35.6498952777778,139.289543611111,ポスター掲示場,長房町１３６９先
030-6 原宿町会内三角地花壇歩道側,35.6470061111111,139.290890833333,ポスター掲示場,東浅川町２９６－２
030-7 都立陵南公園北側,35.6488280555556,139.292416388889,ポスター掲示場,東浅川町３１
031-1 旧浅川支所東側フェンス,35.6427380555556,139.275021388889,ポスター掲示場,高尾町１７３５
031-2 高尾駅北口臨時駐輪場フェンス,35.6423280555556,139.280186111111,ポスター掲示場,高尾町１５７６－４
031-3 西浅川児童遊園,35.6397980555556,139.272083888889,ポスター掲示場,西浅川町２６－１
031-4 浅川事務所西側フェンス,35.6430961111111,139.276783888889,ポスター掲示場,高尾町１６５２－１
031-5 御嶽神社横,35.643615,139.280026388889,ポスター掲示場,廿里町３３－３
031-6 廿里町公会堂向かい,35.6455016666667,139.282296388889,ポスター掲示場,廿里町１１－１
032-1 消防団第１１分団第１１部器具置場東側畑,35.6287747222222,139.268858333333,ポスター掲示場,高尾町２３５８先
032-2 高尾山口駅北交差点,35.6342633333333,139.270633333333,ポスター掲示場,高尾町１７９８先
032-3 東京都水道局南浅川配水所,35.6197694444444,139.262303333333,ポスター掲示場,南浅川町３０７７－３先
032-4 高尾山口駅横公園脇遊歩道フェンス（トイレ手前）,35.6317794444444,139.269664722222,ポスター掲示場,高尾町２２４１先
033-1 裏高尾増圧ポンプ所付近,35.6395647222222,139.247780833333,ポスター掲示場,裏高尾町１２１４
033-2 高尾梅の郷まちの広場,35.6387213888889,139.255920277778,ポスター掲示場,裏高尾町９１５外
033-3 駒木野病院北側万年塀,35.6409619444444,139.268713888889,ポスター掲示場,裏高尾町２７３
034-1 高尾駅南口バス停中央植込,35.6418030555556,139.283795277778,ポスター掲示場,初沢町１２３１
034-2 浅川小学校東側フェンス,35.6402930555556,139.282635555556,ポスター掲示場,初沢町１３３５
034-3 初沢橋横,35.6404980555556,139.28051,ポスター掲示場,初沢町１３５６先
034-4 紅葉台中公園西側,35.6325208333333,139.279380833333,ポスター掲示場,狭間町１９９４－１５６
034-5 狭間公園南側,35.6404827777778,139.290575,ポスター掲示場,狭間町１４９１－１
034-6 八王子狭間住宅南側児童公園フェンス,35.6376166666667,139.288261666667,ポスター掲示場,狭間町１４６４－１
034-7 猿額公園,35.6350738888889,139.285317777778,ポスター掲示場,狭間町１８００－５０
034-8 三和団地自治会案内図付近,35.6386144444444,139.275756666667,ポスター掲示場,初沢町１４２９－３０８先
035-1 東浅川小学校南側フェンス,35.6417875,139.286910555556,ポスター掲示場,東浅川町５５０－２２
035-2 東浅川公園西側フェンス,35.6465936111111,139.29507,ポスター掲示場,東浅川町５５９
035-3 東浅川公園東側フェンス,35.6473911111111,139.296234166667,ポスター掲示場,東浅川町５５９
035-4 東浅川小学校西側フェンス,35.6423155555556,139.286209166667,ポスター掲示場,東浅川町５５０－２２
035-5 陵南中学校南側フェンス,35.6447891666667,139.294456388889,ポスター掲示場,東浅川町５５３－９
035-6 （有）協和製作所付近,35.6442688888889,139.299212222222,ポスター掲示場,東浅川町６１８－２
035-7 狭間公園西側,35.6408461111111,139.289665277778,ポスター掲示場,狭間町１４９１－１
035-8 陵南中学校西側フェンス,35.6457044444444,139.292405,ポスター掲示場,東浅川町５５３－９
040-1 越野下根公園敷地内,35.6290694444444,139.390481944444,ポスター掲示場,越野１３
040-2 越野吹上公園,35.6292055555556,139.386430833333,ポスター掲示場,越野４
040-3 由木中央市民センター前道路沿い,35.6270597222222,139.382354722222,ポスター掲示場,下柚木２－１０－６
040-4 旧由木事務所跡地野猿街道沿いフェンス,35.6282741666667,139.382775,ポスター掲示場,下柚木４９８
040-5 バス停「殿ヶ谷戸」前畑,35.6299122222222,139.377644166667,ポスター掲示場,下柚木２６０－１
040-6 NTT由木電話交換局フェンス,35.6287822222222,139.38781,ポスター掲示場,越野９
040-7 下柚木小学校北側土手,35.6222633333333,139.379614166667,ポスター掲示場,下柚木３－９
040-8 大片瀬公園敷地内,35.6248747222222,139.380261388889,ポスター掲示場,下柚木２－２０
040-9 越野北八幡公園南側敷地内,35.6303983333333,139.393310833333,ポスター掲示場,越野３７
041-1 由木西小学校西側フェンス,35.6232127777778,139.3608825,ポスター掲示場,上柚木５３８－１
041-2 （有）松原工業ストックヤード東側空地,35.6245869444444,139.369704444444,ポスター掲示場,上柚木１４７５－１
041-3 中山会館前,35.6276761111111,139.363013888889,ポスター掲示場,中山４５７
041-4 バス停「上柚木」前フェンス,35.6221338888889,139.370824166667,ポスター掲示場,上柚木１１７８先
041-5 上柚木駐在所南側道路フェンス,35.6209008333333,139.3654625,ポスター掲示場,上柚木３１２－２先
041-6 日影橋北西側,35.6198727777778,139.365080833333,ポスター掲示場,上柚木３２５－８先
041-7 中山小学校南側フェンス,35.6251119444444,139.357836388889,ポスター掲示場,中山１１５５
042-1 海公園西側,35.6334063888889,139.373541111111,ポスター掲示場,南陽台１－１１
042-2 都立長沼公園平山口階段下,35.6365077777778,139.374166944444,ポスター掲示場,南陽台３－４－３先
042-3 北楽公園敷地内西寄り,35.6355727777778,139.374952777778,ポスター掲示場,南陽台３－６
042-4 竹の子公園敷地内,35.6319183333333,139.377281666667,ポスター掲示場,南陽台２－９－１４
042-5 バス停「南陽台中央」北側空地,35.6343422222222,139.377121388889,ポスター掲示場,南陽台３－１３－１７先
050-1 信号「八王子堀之内東」東側梅林フェンス,35.6311780555556,139.404070555556,ポスター掲示場,堀之内２－２３－５先
050-2 堀之内洗馬川公園東側道路沿い,35.6308986111111,139.406202222222,ポスター掲示場,堀之内２－２５－１
050-3 堀之内引切公園北側フェンス,35.6299444444444,139.403268055556,ポスター掲示場,堀之内２－１８－１
050-4 松原公園南側フェンス,35.6417888888889,139.411731111111,ポスター掲示場,東中野２１２－１
050-5 （株）加藤ガス東側空地,35.6356813888889,139.411553611111,ポスター掲示場,東中野７６－１先
050-6 東中野かじざか公園入口左側植込,35.6432741666667,139.411803611111,ポスター掲示場,東中野２９３－５
050-7 由木東小学校北側フェンス,35.6337697222222,139.40794,ポスター掲示場,東中野１３４７先
050-8 由木東小学校東側フェンス,35.6329666666667,139.408860555556,ポスター掲示場,東中野１３４７先
050-9 天野谷戸公園北側道路沿い,35.6395136111111,139.412772222222,ポスター掲示場,東中野２４４－７
051-1 バス停「大塚公園」前道路沿い,35.6327625,139.417331388889,ポスター掲示場,松が谷６６先
051-2 大塚西公園西側,35.6278236111111,139.417405277778,ポスター掲示場,松が谷１０５
051-3 望地公園南側,35.6321772222222,139.420333888889,ポスター掲示場,松が谷１４０
051-4 バス停「松が谷小学校」前道路沿い,35.6293736111111,139.413430833333,ポスター掲示場,松が谷５０先
051-5 バス停「松が谷」前道路沿い,35.6273763888889,139.414424722222,ポスター掲示場,松が谷１２先
051-6 大塚橋西側フェンス,35.6337577777778,139.420304166667,ポスター掲示場,松が谷１４０－１４０
051-7 乳母ケ谷公園西側道路沿い,35.6285813888889,139.411511388889,ポスター掲示場,松が谷１６８
052-1 都営鹿島１６番地団地南側道路沿い,35.6348288888889,139.426685555556,ポスター掲示場,鹿島１９先
052-2 鹿島小学校南側校門横フェンス（プール側）,35.6331616666667,139.425935,ポスター掲示場,鹿島１３先
052-3 バス停「鹿島」前道路沿い,35.6340544444444,139.424178333333,ポスター掲示場,鹿島１１７先
052-4 梶川緑地西側道路沿い,35.6345316666667,139.420312222222,ポスター掲示場,鹿島１１２
052-5 大塚東公園西側バス停「山根入」,35.6308186111111,139.4229675,ポスター掲示場,鹿島１０４－１
052-6 大塚なかおね公園西側フェンス,35.6434097222222,139.413485555556,ポスター掲示場,大塚２７２－３
052-7 由木ケ丘公園北側フェンス左寄り,35.6390661111111,139.414406388889,ポスター掲示場,大塚５８－７０
052-8 大塚宮田公園西側道路沿い,35.6363061111111,139.4194275,ポスター掲示場,大塚６７０－８先
060-1 秋葉台小学校西側,35.6244936111111,139.404829722222,ポスター掲示場,別所２－５
060-2 VIA長池立体駐車場南側,35.6239091666667,139.401901666667,ポスター掲示場,別所２－１
060-3 別所中学校入口脇,35.6198180555556,139.40024,ポスター掲示場,別所２－２８
060-4 別所公園東側入口脇,35.6177594444444,139.399492777778,ポスター掲示場,別所２－３３－２
060-5 別所小学校西側,35.61345,139.394967777778,ポスター掲示場,別所２－４４
060-6 別所小学校北側,35.6149727777778,139.395616944444,ポスター掲示場,別所２－４４
060-7 別所公園南,35.6153497222222,139.399624722222,ポスター掲示場,別所２－３３－２
060-8 別所ふれあい公園東側,35.6231222222222,139.398779166667,ポスター掲示場,別所１－８
061-1 松木中学校南側フェンス,35.6177144444444,139.392144166667,ポスター掲示場,別所１－３４－１
061-2 大石やかた公園,35.6276786111111,139.387680833333,ポスター掲示場,松木１
061-3 松木えのき公園,35.6211852777778,139.388997222222,ポスター掲示場,松木２２
061-4 松木小学校正門脇,35.6224263888889,139.394497222222,ポスター掲示場,松木５７－３
061-5 松木峰ヶ谷戸公園,35.62428,139.396256944444,ポスター掲示場,松木３６
061-6 蓮生寺公園北西側,35.6205627777778,139.394377222222,ポスター掲示場,別所１－３１先
061-7 多摩ニュータウン蓮生寺団地集会所東側,35.6213547222222,139.396764444444,ポスター掲示場,別所１－２９
061-8 富士見台公園第２駐車場東,35.6247152777778,139.386316666667,ポスター掲示場,松木８０先
062-1 南大沢中郷公園入口西側,35.6127180555556,139.380095,ポスター掲示場,南大沢２－２７先
062-2 柏木小学校西側フェンス,35.6097408333333,139.382375,ポスター掲示場,南大沢３－３
062-3 バス停「南大沢団地」前,35.6056041666667,139.381156111111,ポスター掲示場,南大沢３－１３先
062-4 トミンハイム南大沢東北側,35.6041405555556,139.382973888889,ポスター掲示場,南大沢３－１６－２
062-5 東光寺橋フェンス南端,35.6130077777778,139.3779075,ポスター掲示場,南大沢２－２８先
062-6 南大沢駅北口歩行者通路上フェンス,35.6147636111111,139.379184166667,ポスター掲示場,南大沢１－３８０
062-7 南大沢長谷戸公園前,35.6063475,139.385425555556,ポスター掲示場,南大沢２－２２１
062-8 南大沢日向公園東側,35.6177577777778,139.383951944444,ポスター掲示場,南大沢１－１９
063-1 バス停「だいり橋」向い側土手,35.6159166666667,139.375743611111,ポスター掲示場,南大沢１－１
063-2 宮上中学校東側入口道路沿い,35.6131975,139.374510833333,ポスター掲示場,南大沢５－５
063-3 公団南大沢学園２番街西南角,35.6154508333333,139.3730625,ポスター掲示場,上柚木３－５－９
063-4 バス停「三徳プラザ前」前道路先,35.6131461111111,139.369663055556,ポスター掲示場,上柚木３－１３先
063-5 宮上小学校正門西側,35.61098,139.370912222222,ポスター掲示場,南大沢５－１０
063-6 上柚木小学校西側土手,35.6154455555556,139.36795,ポスター掲示場,上柚木３－１５
063-7 上柚木公園健康広場南側,35.6191163888889,139.371735833333,ポスター掲示場,上柚木２－４０－１
063-8 上柚木公園内野球場前児童遊園植込,35.6175297222222,139.366771944444,ポスター掲示場,上柚木２－４０－１
064-1 板木会館東側,35.6135619444444,139.35863,ポスター掲示場,鑓水２－１１６
064-2 パークフィーネ南大沢一番館前,35.6104344444444,139.366941388889,ポスター掲示場,鑓水２－８３
064-3 絹の道一番街北側,35.6130725,139.366781666667,ポスター掲示場,鑓水２－８１
064-4 宮上駐在所西側植込前壁面,35.61288,139.368245833333,ポスター掲示場,南大沢５－１４－８
064-5 鑓水中学校東,35.6130791666667,139.360649166667,ポスター掲示場,鑓水２－６７
064-6 鑓水小学校北西側,35.6139027777778,139.363355277778,ポスター掲示場,鑓水２－７４
064-7 鑓水公園西側入口脇,35.6108469444444,139.3599775,ポスター掲示場,鑓水２－６６
065-1 信号「由木西小入口」前,35.6156816666667,139.361965555556,ポスター掲示場,鑓水４２先
065-2 鑓水公会堂前,35.6173091666667,139.354625833333,ポスター掲示場,鑓水１０２７－１
065-3 鑓水まちの広場南側フェンス前,35.6163788888889,139.355238055556,ポスター掲示場,鑓水１０４２先
065-4 多摩美術大学入口東側,35.6132513888889,139.3506025,ポスター掲示場,鑓水２－１７２３先
065-5 信号「多摩美大西」東方先,35.6135177777778,139.348273333333,ポスター掲示場,鑓水１６０９先
065-6 バス停「鑓水入口」東方,35.6138713888889,139.343717777778,ポスター掲示場,鑓水１３９８
066-1 バス停「九反甫公園」前,35.6060788888889,139.377158611111,ポスター掲示場,南大沢４－２１－１先
066-2 南大沢小学校正門脇,35.6074325,139.37455,ポスター掲示場,南大沢４－１８
066-3 都立小山内裏公園東,35.6058894444444,139.375189722222,ポスター掲示場,南大沢４－４７－９先
066-4 多摩ニュータウン南大沢団地４号棟東側,35.608945,139.376964722222,ポスター掲示場,南大沢４－１５
066-5 四季の丘南緑地西側,35.60419,139.373457777778,ポスター掲示場,南大沢４－１１２先
066-6 公団シティハイツ南大沢西側,35.6106933333333,139.377379722222,ポスター掲示場,南大沢４－１０
066-7 南大沢小学校北側校門脇,35.609145,139.374897222222,ポスター掲示場,南大沢４－１８
067-1 長池小学校西側道路沿い,35.6098927777778,139.3879025,ポスター掲示場,別所１－５５
067-2 松木公園西側駐車場前植込,35.611995,139.389434444444,ポスター掲示場,別所１－５６－２
067-3 松木公園東側植込,35.6122644444444,139.391270833333,ポスター掲示場,別所１－５６－２
067-4 公団ビューコート別所3号棟集会所前,35.6154172222222,139.390003611111,ポスター掲示場,別所１－３８－３
067-5 多摩ニュータウン別所一丁目第２団地1号棟駐車場裏植込,35.6085033333333,139.388114722222,ポスター掲示場,別所１－４８－１
067-6 別所やまざくら公園南側,35.6164683333333,139.387096666667,ポスター掲示場,別所１－４０
067-7 別所坂公園下歩道橋前広場,35.6146144444444,139.385007777778,ポスター掲示場,別所１－１２８
067-8 長池小学校北側道路植込,35.6116541666667,139.387955,ポスター掲示場,別所１－５５
080-1 横山事務所前,35.6512630555556,139.300195,ポスター掲示場,並木町１５－１５
080-2 並木町ふれあい公園内フェンス,35.6528058333333,139.304104722222,ポスター掲示場,並木町９－２７
080-3 バス停「桑志高校」南側信号前緑地,35.6552619444444,139.305987222222,ポスター掲示場,並木町３７－１８先
080-4 都立富士森高校河川沿いフェンス,35.6562677777778,139.302339166667,ポスター掲示場,長房町４２０－２
080-5 稲荷森神社北西塀,35.65295,139.300551944444,ポスター掲示場,並木町２４－１７
080-6 長房市民センター西側フェンス,35.65023,139.295340833333,ポスター掲示場,長房町５０６－２
080-7 旧長房南アパート52号棟東フェンス,35.6548161111111,139.297245277778,ポスター掲示場,長房町５５０－９先
081-1 東雲第二公園西側,35.6528872222222,139.316563611111,ポスター掲示場,散田町１－１６
081-2 南多摩病院南側フェンス,35.6551352777778,139.312951944444,ポスター掲示場,散田町３－１０－１
081-3 西八王子駅南口線路沿いフェンス,35.6559141666667,139.311538055556,ポスター掲示場,散田町３－１先
081-4 西八王子ハイツＡ棟西側垣根,35.6549122222222,139.314726944444,ポスター掲示場,散田町１－１
081-5 ＮＴＴ八王子駐車場南側フェンス,35.6523511111111,139.308885555556,ポスター掲示場,散田町３－１４－２０
081-6 散田給水所北側フェンス,35.6515830555556,139.314607777778,ポスター掲示場,散田町２－６－１
081-7 東散田公園内,35.6516011111111,139.310113888889,ポスター掲示場,散田町３－２４
082-1 めじろ台東公園東側,35.6436463888889,139.315281111111,ポスター掲示場,山田町１６７７－１先
082-2 山田橋前廣園禅寺駐車場フェンス,35.6457330555556,139.316677777778,ポスター掲示場,山田町１５７７
082-3 山田小学校南門東側フェンス,35.6459827777778,139.313690833333,ポスター掲示場,山田町１５５３
082-4 めじろ台東公園西側,35.643995,139.314619722222,ポスター掲示場,山田町１９５４－１先
082-5 緑町西公園北側,35.6452738888889,139.319907777778,ポスター掲示場,緑町４０１先
082-6 桝形公園北側植込,35.6423052777778,139.316800555556,ポスター掲示場,山田町１６８１－２先
082-7 小比企北公園南側,35.6434894444444,139.318513888889,ポスター掲示場,小比企町４６９－４先
083-1 第二開戸橋北,35.6589238888889,139.297808888889,ポスター掲示場,長房町２５６
083-2 長房東アパート人形塚公園東側,35.6584675,139.3016875,ポスター掲示場,長房町４０４－２先
083-3 中舟田公園北側フェンス,35.6577830555556,139.297670277778,ポスター掲示場,長房町３０５－３先
083-4 長房児童館南側塀,35.6571447222222,139.298473055556,ポスター掲示場,長房町３４１
083-5 長房東アパート人形塚公園西側,35.6584086111111,139.300915555556,ポスター掲示場,長房町４０４－２先
083-6 開戸橋南,35.6575983333333,139.296156666667,ポスター掲示場,長房町７１３
084-1 めじろ台駅前道路沿い植込,35.6436530555556,139.306923333333,ポスター掲示場,めじろ台１－１
084-2 めじろ台西公園西側植込,35.6432530555556,139.300032777778,ポスター掲示場,めじろ台４－４０
084-3 めじろ台二丁目公園西側,35.6425983333333,139.310794722222,ポスター掲示場,めじろ台２－２２－１６先
084-4 向原公園北側フェンス,35.6398,139.311442222222,ポスター掲示場,めじろ台２－６８
084-5 めじろ台南公園,35.6399872222222,139.306889722222,ポスター掲示場,めじろ台３－４３
084-6 めじろ台中公園内植込,35.6433327777778,139.301239166667,ポスター掲示場,めじろ台４－９５－６先
084-7 めじろ台富士見公園,35.6444913888889,139.309701388889,ポスター掲示場,めじろ台１－２－２先
085-1 横山中学校南東フェンス,35.6488594444444,139.303995833333,ポスター掲示場,散田町５－２２－３６
085-2 散田公園西側,35.6494516666667,139.301897777778,ポスター掲示場,散田町５－１３－６
085-3 散田小学校正門横フェンス,35.6476880555556,139.302457777778,ポスター掲示場,散田町５－２３－１
085-4 椿公園北側フェンス,35.6458088888889,139.300356666667,ポスター掲示場,散田町５－２８
085-5 中散田公園南側フェンス,35.6511255555556,139.303500277778,ポスター掲示場,散田町４－９
085-6 横山中学校北側フェンス,35.6492027777778,139.302937777778,ポスター掲示場,散田町５－２２－３６
086-1 船田運動広場フェンス,35.6558577777778,139.289284722222,ポスター掲示場,城山手１－３０
086-2 長房北アパート汚水処理場北側フェンス,35.6565916666667,139.290905833333,ポスター掲示場,長房町７１９
086-3 長房北アパート７５号棟跡地北側,35.65712,139.293375,ポスター掲示場,長房町７１９
086-4 出羽山公園南側,35.6554019444444,139.2866075,ポスター掲示場,城山手１－４
086-5 出羽山公園東側,35.6555866666667,139.287678055556,ポスター掲示場,城山手１－４
086-6 出羽山公園西側,35.6565991666667,139.285090833333,ポスター掲示場,城山手１－４
086-7 城山手こぶし公園敷地内北側,35.6520772222222,139.286016944444,ポスター掲示場,城山手１－２２
087-1 長房アパート西２９号棟南側フェンス,35.6558141666667,139.2949075,ポスター掲示場,長房町５８８
087-2 長房アパート西３号棟北側バス停後方,35.6536266666667,139.291694444444,ポスター掲示場,長房町５８８
087-3 長房アパート西１号棟南側バス停前,35.6527991666667,139.292071111111,ポスター掲示場,長房町５８８
087-4 長房アパート西２８号棟北側駐車場南側フェンス,35.6559369444444,139.293200277778,ポスター掲示場,長房町５８８
087-5 長房南アパート52号棟東側公園北側フェンス,35.6546752777778,139.296754722222,ポスター掲示場,長房町５２０
087-6 長房南アパート船田遺跡公園北側,35.6537244444444,139.294932222222,ポスター掲示場,長房町５８８
100-1 ゆりのき台中央公園,35.627525,139.301213888889,ポスター掲示場,館町２３００－１６８
100-2 たてまち幼稚園前市道脇フェンス,35.6277455555556,139.294583055556,ポスター掲示場,館町２４３５－１
100-3 椚田中学校校庭側門フェンス,35.6342208333333,139.309811944444,ポスター掲示場,椚田町１７２
100-4 館事務所南側フェンス,35.6342233333333,139.306455833333,ポスター掲示場,館町１５６
100-5 ひまわり保育園南側,35.6326080555556,139.299555833333,ポスター掲示場,館町１６０１
100-6 八王子医療センターバス折り返し場手前空地,35.6310163888889,139.290124444444,ポスター掲示場,館町１１６３
100-7 上館バス停向かい,35.6337438888889,139.287312777778,ポスター掲示場,館町７０１
100-8 横山第一小学校北側フェンス,35.6343797222222,139.304345277778,ポスター掲示場,館町７４
101-1 寺田工務店横,35.6284625,139.308015555556,ポスター掲示場,寺田町８３０－１
101-2 バス停「寺田東」前,35.6253511111111,139.309425555556,ポスター掲示場,寺田町４００－２
101-3 緑が丘小学校正門脇,35.6227533333333,139.309439722222,ポスター掲示場,寺田町４０５－５
101-4 バス停「グリーンヒル寺田」北側寺田緑地,35.6217605555556,139.301764166667,ポスター掲示場,寺田町１０５７先
101-5 グリーンヒル寺田１２７号棟北側歩道,35.6210513888889,139.303626111111,ポスター掲示場,寺田町４３２
101-6 榛名橋先フェンス,35.6289005555556,139.310196944444,ポスター掲示場,寺田町２８３
101-7 バス停「鍛冶谷戸」脇フェンス,35.6224738888889,139.300667222222,ポスター掲示場,寺田町１１０７
101-8 旧稲荷山小学校南側フェンス,35.6199047222222,139.301159444444,ポスター掲示場,寺田町１４５５－３
102-1 寺田緑地,35.6251077777778,139.311623055556,ポスター掲示場,大船町１４２－４８先
102-2 みなみ野下大船公園（大船会館入口脇）,35.6257975,139.315520555556,ポスター掲示場,大船町２５２－６先
102-3 バス停「下大船」前,35.6285813888889,139.313806944444,ポスター掲示場,大船町１０９先
102-4 パルスモ（株）前市道脇,35.6172497222222,139.316483333333,ポスター掲示場,大船町１０４４－２
102-5 都道５０６号線土手,35.6211958333333,139.314102222222,ポスター掲示場,大船町６６７－２
102-6 大船久保田公園東側フェンス,35.6264202777778,139.312056944444,ポスター掲示場,大船町１３５－６
102-7 大船前田緑地北側道路沿い,35.626405,139.314234722222,ポスター掲示場,大船町１５６－１２
103-1 館中学校正門脇,35.6277463888889,139.289899166667,ポスター掲示場,館町２７８６
103-2 高尾山学園正門脇,35.6240663888889,139.289474166667,ポスター掲示場,館町１０９７－３０先
103-3 館ヶ丘団地３－６号棟東側植込,35.6260366666667,139.2871275,ポスター掲示場,館町１０９７
103-4 館ヶ丘団地１－８号棟西側,35.6276905555556,139.285083611111,ポスター掲示場,館町１０９７
103-5 館ヶ丘団地１－１４号棟東側広場,35.6296602777778,139.287125277778,ポスター掲示場,館町１０９７
103-6 高尾山学園北側,35.6248441666667,139.288614444444,ポスター掲示場,館町１０９７－３０先
103-7 信号「医療センター入口」東側,35.6315941666667,139.286638611111,ポスター掲示場,館町１１６３先
104-1 八王子市椚田運動場西側,35.6360255555556,139.313505555556,ポスター掲示場,椚田町５１７－１
104-2 下椚田公園南側フェンス,35.6387377777778,139.315557222222,ポスター掲示場,椚田町５００－２
104-3 二軒在家公園南側コンクリート壁,35.6389325,139.303301666667,ポスター掲示場,椚田町５８２－９
104-4 椚田小学校南側フェンス,35.6364947222222,139.302243611111,ポスター掲示場,椚田町５７１－２
104-5 椚田小学校西側フェンス,35.6373047222222,139.300966944444,ポスター掲示場,椚田町５７１－２
104-6 東京工業高専グランド南側歩道沿い（西寄り）,35.6385408333333,139.295276111111,ポスター掲示場,椚田町１２２０－２
104-7 東京工業高専東側フェンス,35.6386125,139.300770277778,ポスター掲示場,椚田町１２２０－２
104-8 エスフォルタアリーナ東側,35.6393855555556,139.293025833333,ポスター掲示場,狭間町１４５３
110-1 諏訪町公園北東側,35.6777577777778,139.290320277778,ポスター掲示場,諏訪町７
110-2 上壱分方町民家ブロック塀,35.6806441666667,139.289255555556,ポスター掲示場,上壱分方町３０６－１
110-3 元八王子市民センター前植込,35.6830566666667,139.286056388889,ポスター掲示場,上壱分方町７４７－１
110-4 諏訪町・森公園南側フェンス,35.6774230555556,139.292443333333,ポスター掲示場,諏訪町１９６－１２
110-5 上壱分方小学校西側フェンス,35.6837869444444,139.283303055556,ポスター掲示場,上壱分方町７９９－２
110-6 特養ホーム諏訪の森道路沿い花壇,35.6754680555556,139.293766944444,ポスター掲示場,諏訪町１１０－２
110-7 松枝住宅２号棟北側縁地,35.6823694444444,139.293541111111,ポスター掲示場,諏訪町１９２２－１－２
110-8 こどもキャンプ場東側,35.6831869444444,139.28171,ポスター掲示場,上壱分方町３６
111-1 元八王子事務所東側フェンス,35.6711955555556,139.293331111111,ポスター掲示場,大楽寺町４１９－１
111-2 弐分方公園東側,35.6705933333333,139.290264166667,ポスター掲示場,弐分方町７４４－４
111-3 石井ハイツ南側フェンス,35.6668502777778,139.290626944444,ポスター掲示場,元八王子町１－５１４
111-4 ヘアサロンよしもと北側フェンス,35.6732869444444,139.285739166667,ポスター掲示場,弐分方町３８４－１
111-5 元八王子小学校東側フェンス,35.6687522222222,139.292048333333,ポスター掲示場,弐分方町７６１
111-6 四谷中学校東側フェンス,35.677645,139.296924166667,ポスター掲示場,四谷町５５５
111-7 柳沢さくら公園南側植込,35.6718672222222,139.285680833333,ポスター掲示場,弐分方町４６８－８
111-8 消防団第８分団第５部器具置場フェンス,35.6667058333333,139.2884725,ポスター掲示場,元八王子町１－８０－３
112-1 スーパーアルプス横川店駐車場北側フェンス,35.6666358333333,139.303831944444,ポスター掲示場,横川町５４０－１
112-2 横川下原公園北側入口フェンス,35.6676913888889,139.297133333333,ポスター掲示場,横川町８１２
112-3 横川公園南側フェンス,35.6647052777778,139.305975277778,ポスター掲示場,横川町４６７先
112-4 デイサービスセンター東側民家ブロック塀,35.6652411111111,139.297603333333,ポスター掲示場,横川町８９９
112-5 横川つつじ公園,35.6636508333333,139.296374444444,ポスター掲示場,横川町９３７－１５先
112-6 横川西公園フェンス,35.6629625,139.294395,ポスター掲示場,横川町９８０－４先
112-7 つつじヶ丘緑地北側,35.6625883333333,139.298870555556,ポスター掲示場,横川町６１７－１５先
113-1 松子舞西公園フェンス,35.6678425,139.281850833333,ポスター掲示場,川町７８９先
113-2 道場根東公園前植込,35.6638988888889,139.277417777778,ポスター掲示場,元八王子町２－３３５５－４
113-3 梶原谷とちの木公園北側,35.6626472222222,139.274998333333,ポスター掲示場,元八王子町２－３３４４－４
113-4 元八王子町二丁目ガソリンスタンド北側空地フェンス,35.6582769444444,139.2810575,ポスター掲示場,元八王子町２－１９２６－８
113-5 道場根中央公園北東隅切り,35.6650094444444,139.276075,ポスター掲示場,元八王子町２－３３１８－５先
113-6 信号「八王子城跡入口」東側民家ブロック塀,35.6571722222222,139.272551666667,ポスター掲示場,元八王子町３－２４０８
113-7 霞が丘公園南側フェンス,35.6521166666667,139.274449722222,ポスター掲示場,元八王子町３－２１５３－５１先
113-8 高尾台西公園東側フェンス,35.6524680555556,139.269131111111,ポスター掲示場,元八王子町３－２７５０－５４８
114-1 元八王子東小学校北側フェンス,35.6713986111111,139.303563611111,ポスター掲示場,叶谷町１５２１
114-2 西蓮寺陣馬街道側万年塀,35.6692069444444,139.300543055556,ポスター掲示場,大楽寺町５６６
114-3 元八王子東小学校南側ブロック塀,35.6697427777778,139.304320555556,ポスター掲示場,叶谷町１５２１
114-4 八王子泉町住宅３号棟西側フェンス,35.6766616666667,139.2988575,ポスター掲示場,泉町６８２－１
114-5 叶谷公園西側入口脇フェンス,35.6712522222222,139.299851111111,ポスター掲示場,叶谷町１０７２－１
114-6 並木原公園西側植込,35.6771330555556,139.299761944444,ポスター掲示場,泉町１９１１－１３９
114-7 泉町ふれあい公園南側フェンス,35.6748997222222,139.302656111111,ポスター掲示場,泉町１４２３－１１先
114-8 泉町会館前,35.6740366666667,139.302071666667,ポスター掲示場,泉町１３４４
115-1 横川小学校北側フェンス,35.6675522222222,139.308105555556,ポスター掲示場,横川町３０５
115-2 横川小学校西側校門脇フェンス,35.6672294444444,139.306819444444,ポスター掲示場,横川町３０５
115-3 横川町住宅１１号棟北側植込,35.6689236111111,139.307274722222,ポスター掲示場,横川町１０８
115-4 横川町住宅８号棟東側歩道橋下フェンス,35.667765,139.309689722222,ポスター掲示場,横川町１０８
115-5 横川町住宅１号棟東側フェンス,35.6656347222222,139.309274166667,ポスター掲示場,横川町１０８
115-6 横川中学校西側フェンス,35.6680880555556,139.304303055556,ポスター掲示場,横川町３６４
115-7 横川北ちびっ子広場西側,35.6669191666667,139.304343333333,ポスター掲示場,横川町４１８－２先
116-1 川町運動場入口横フェンス,35.6730533333333,139.273729722222,ポスター掲示場,川町１２８
116-2 バス停「タウン入口」向い側空地,35.6678547222222,139.266148055556,ポスター掲示場,川町２９１先
116-3 グリーンタウン高尾内汚水処理場北側フェンス,35.6724230555556,139.274456666667,ポスター掲示場,川町１２８－２７９先
116-4 グリーンタウン高尾バス折返場南側調整池植込,35.6720283333333,139.275810277778,ポスター掲示場,川町２９２先
116-5 よしの沢公園南側植込,35.6706877777778,139.270759166667,ポスター掲示場,川町１２８－１６０先
116-6 バス停「川町落合橋」東側民家ブロック塀,35.6712230555556,139.277493055556,ポスター掲示場,川町１７５
116-7 グリーンタウン高尾内公園南側,35.6708413888889,139.268172222222,ポスター掲示場,川町２４４－３６先
130-1 東京都八王子福祉園南側植込,35.6735766666667,139.264683333333,ポスター掲示場,西寺方町７６
130-2 恩方市民センター北側,35.6741275,139.268476388889,ポスター掲示場,西寺方町２６０－４
130-3 恩方第一小学校北側,35.6702438888889,139.254787777778,ポスター掲示場,下恩方町１３６９
130-4 恩方老人憩いの家駐車場内フェンス,35.6676341666667,139.249029166667,ポスター掲示場,下恩方町３３９５
130-5 恩方第一小学校西側フェンス,35.6689819444444,139.253491666667,ポスター掲示場,下恩方町１３６９
130-6 恩方中学校南側フェンス,35.6691772222222,139.242861388889,ポスター掲示場,上恩方町１１
130-7 恩方上宿公園南側フェンス,35.6713033333333,139.254475833333,ポスター掲示場,下恩方町１３１４
130-8 西東京バス（株）恩方営業所ブロック塀,35.6781238888889,139.256891944444,ポスター掲示場,下恩方町２８１－１
131-1 興慶寺入口,35.6712591666667,139.226937777778,ポスター掲示場,上恩方町１２４１－１
131-2 夕やけ小やけふれあいの里第二駐車場前,35.6707997222222,139.214148333333,ポスター掲示場,上恩方町４７４１先
131-3 夕やけ小やけふれあいの里育苗園（温室）前植込,35.6715411111111,139.216521944444,ポスター掲示場,上恩方町２００８先
131-4 降宿醍醐会館横,35.6786447222222,139.190365555556,ポスター掲示場,上恩方町２９２４
131-5 恩方第二小学校正門脇,35.6717908333333,139.210391388889,ポスター掲示場,上恩方町２１９３
131-6 案下会館付近,35.6636327777778,139.191344166667,ポスター掲示場,上恩方町３９９３
132-1 多摩火薬機工（株）前,35.6768986111111,139.246613333333,ポスター掲示場,小津町１３５
132-2 小津町会館入口交差点,35.6789494444444,139.235360833333,ポスター掲示場,小津町５６０
133-1 夕焼け台公園北側フェンス,35.6851675,139.2678975,ポスター掲示場,西寺方町１０１９－４２２先
133-2 陵北児童遊園北側フェンス,35.6827988888889,139.270231111111,ポスター掲示場,西寺方町１０６１－８
133-3 元木まちの広場向かい,35.6795894444444,139.268160555556,ポスター掲示場,下恩方町６１８先
133-4 元木小学校西側フェンス,35.6807019444444,139.263493888889,ポスター掲示場,下恩方町８３５－４
133-5 下恩方地区運動場,35.6774569444444,139.26115,ポスター掲示場,下恩方町３５７－２
133-6 飲食店東側梅林,35.6764541666667,139.268948055556,ポスター掲示場,西寺方町５０８－１
140-1 川口中部まちの広場南側フェンス,35.6936352777778,139.279533055556,ポスター掲示場,川口町９１９－４先
140-2 川口小学校東側民家ブロック塀,35.6916177777778,139.281861666667,ポスター掲示場,川口町９５７
140-3 飲食店向かい側民家ブロック塀,35.6886955555556,139.2871525,ポスター掲示場,川口町１１８４
140-4 鳥栖公園東側フェンス,35.6943377777778,139.281329444444,ポスター掲示場,川口町２６９１－４先
140-5 クリーニング屋前畑,35.6930252777778,139.283338333333,ポスター掲示場,川口町２５８６－３先
140-6 川口東部会館門柱東側フェンス,35.6903133333333,139.288672222222,ポスター掲示場,川口町１９７０－１
140-7 天理教川口分教会西畑北側,35.6921641666667,139.289241111111,ポスター掲示場,川口町２１５９－８先
140-8 堀口児童遊園,35.6909002777778,139.291578888889,ポスター掲示場,川口町１８９０－２３
141-1 楢原桜並木公園北側,35.6864741666667,139.308617777778,ポスター掲示場,楢原町１８１２
141-2 中犬目まちの広場東側民家フェンス,35.6901361111111,139.305490555556,ポスター掲示場,犬目町１
141-3 陶鎔小学校北側フェンス,35.6886152777778,139.307717777778,ポスター掲示場,犬目町５６
141-4 中犬目まちの広場西側フェンス,35.6903397222222,139.305231111111,ポスター掲示場,犬目町１
141-5 堀西公園フェンス,35.6893377777778,139.302500555556,ポスター掲示場,犬目町９６５－３先
141-6 バス停「下犬目」畑前,35.6861802777778,139.310221944444,ポスター掲示場,犬目町８５先
142-1 圏央道上川橋西側畑,35.6985530555556,139.2694075,ポスター掲示場,上川町２３４７－１
142-2 上川中部児童遊園東側,35.7048355555556,139.2546525,ポスター掲示場,上川町１２１７先
142-3 上川口小学校正門前道路南側,35.7050311111111,139.249785,ポスター掲示場,上川町１０９９先
142-4 東京都水道局上川配水所西側斜面,35.71273,139.232081666667,ポスター掲示場,上川町４４８－１
142-5 上川西部会館向かい側民家ブロック塀,35.7112525,139.236099166667,ポスター掲示場,上川町５９６
142-6 ROAD REST南側桃畑,35.7037316666667,139.254500555556,ポスター掲示場,上川町３４６１－１先
142-7 信号「上川橋」東側空地,35.7019113888889,139.259761111111,ポスター掲示場,上川町１７７５先
143-1 石材店向かい側空地,35.6823238888889,139.259395277778,ポスター掲示場,美山町１３１１先
143-2 信号「八王子西インター」東側フェンス,35.6806930555556,139.255815,ポスター掲示場,美山町１３１１先
143-3 バス停「小足」西民家植込,35.693485,139.241889166667,ポスター掲示場,美山町２１８９
143-4 信号「美山小学校東」東側民家塀,35.6892858333333,139.250480555556,ポスター掲示場,美山町１７３７
143-5 美山小学校校庭南側フェンス,35.6902063888889,139.247924444444,ポスター掲示場,美山町１８９２
143-6 バス停「萩園」前フェンス,35.6845263888889,139.254966111111,ポスター掲示場,美山町１３７２－３先
143-7 美山工業団地西側駐車場前,35.6971894444444,139.239394166667,ポスター掲示場,美山町２１６１－３先
144-1 楢原斎場フェンス,35.6809125,139.30141,ポスター掲示場,楢原町１５７８－５
144-2 楢原小学校東側入口手前畑南側,35.6758575,139.309143611111,ポスター掲示場,楢原町２７８先
144-3 清川１号公園西側,35.6713508333333,139.311656666667,ポスター掲示場,清川町６
144-4 清川２号公園西側,35.6715352777778,139.308995833333,ポスター掲示場,清川町３２
144-5 楢原鹿島公園北側,35.6774061111111,139.309266666667,ポスター掲示場,楢原町３１０－３先
144-6 楢原中学校東側植込,35.6777113888889,139.314154444444,ポスター掲示場,楢原町１２３５
144-7 歯科医院東側フェンス,35.6816055555556,139.302286666667,ポスター掲示場,楢原町１４４３－１先
144-8 一本松公園南側フェンス,35.6780858333333,139.308669722222,ポスター掲示場,楢原町３１１－１先
145-1 川口下川原公園南民家ブロック塀,35.685265,139.295376666667,ポスター掲示場,川口町１５１５－１２
145-2 川口やまゆり館南側植込,35.6858216666667,139.298649722222,ポスター掲示場,川口町３８３８
145-3 松枝小学校南側フェンス,35.6847702777778,139.300898333333,ポスター掲示場,楢原町６０１－１３
145-4 都立八王子北高校東側フェンス,35.6853072222222,139.3040075,ポスター掲示場,楢原町６０１
145-5 駒形公園南側フェンス,35.6888102777778,139.29293,ポスター掲示場,川口町１６７４－６先
145-6 唐松公園東側フェンス,35.6902258333333,139.300414722222,ポスター掲示場,川口町１８１１
150-1 宮下町防災倉庫フェンス,35.7030425,139.315982222222,ポスター掲示場,宮下町１４５先
150-2 旧加住中学校正門脇フェンス,35.7039369444444,139.31346,ポスター掲示場,宮下町１０８－７
150-3 加住市民センター前植込,35.6995061111111,139.323586666667,ポスター掲示場,加住町１－３３８
150-4 信号「丹木町二丁目」東,35.6951047222222,139.3296775,ポスター掲示場,丹木町１－１５先
150-5 金子牧場入口畑,35.6929588888889,139.321842777778,ポスター掲示場,加住町２－３９先
150-6 明王公園北側,35.69461,139.324561666667,ポスター掲示場,丹木町３－１８２－４２先
150-7 加住事務所,35.700655,139.316238055556,ポスター掲示場,加住町１－１７０－２
150-8 加住小中学校西側フェンス,35.7016363888889,139.3159675,ポスター掲示場,加住町１－１９１
151-1 道の駅南側フェンス,35.6861744444444,139.341019722222,ポスター掲示場,滝山町１－５９２－２
151-2 信号「純心学園前」南側駐車場フェンス,35.6915452777778,139.334161666667,ポスター掲示場,滝山町２－４０９先
151-3 大雄ビル西側畑,35.6878358333333,139.343136388889,ポスター掲示場,滝山町１－４１２先
151-4 尾崎児童遊園北側,35.6801141666667,139.344500555556,ポスター掲示場,尾崎町６８先
151-5 左入緑地公園南西畑,35.6818219444444,139.3423425,ポスター掲示場,滝山町１－３５３
152-1 創価大学西駐輪場フェンス,35.6878416666667,139.324891666667,ポスター掲示場,谷野町３１１先
152-2 創価大学正門北駐車場フェンス,35.6882988888889,139.330614166667,ポスター掲示場,丹木町１－３３３－１先
152-3 バス停「谷野町南」東畑,35.6833663888889,139.331511388889,ポスター掲示場,谷野町６４６
152-4 谷萩公園北側,35.6869505555556,139.3251625,ポスター掲示場,谷野町３１８－１先
152-5 信号「谷野町南」東側植込,35.6811936111111,139.334708333333,ポスター掲示場,谷野町１２０７先
152-6 谷野栃ヶ澤公園西側,35.6830772222222,139.329108888889,ポスター掲示場,谷野町９６７－６先
153-1 信号「戸吹町西」東畑,35.7086141666667,139.293874166667,ポスター掲示場,戸吹町３３９－１
153-2 戸吹会館東側フェンス,35.7080402777778,139.296282777778,ポスター掲示場,戸吹町１６８－５
153-3 大棚橋南側駐車場フェンス,35.7057686111111,139.296772222222,ポスター掲示場,戸吹町１４６９－１先
153-4 戸吹清掃事業所北側植込,35.7016986111111,139.294350555556,ポスター掲示場,戸吹町１７９８
153-5 戸吹廣町西緑地入口右側フェンス,35.7109036111111,139.286860833333,ポスター掲示場,戸吹町４８０先
154-1 高月集会所南側畑,35.7134672222222,139.320955277778,ポスター掲示場,高月町２２２先
154-2 高月浄水所正門脇フェンス,35.710255,139.323043888889,ポスター掲示場,高月町４００
154-3 不動院東側水路フェンス,35.7067188888889,139.325739444444,ポスター掲示場,高月町１０８７先
154-4 信号「東秋川橋南」東,35.7165744444444,139.318728055556,ポスター掲示場,高月町１２３６
160-1 小坂ビル横用水路ガードフェンス,35.6436991666667,139.328432222222,ポスター掲示場,小比企町１０５３先
160-2 小比企下向公園東側,35.6413841666667,139.331153888889,ポスター掲示場,小比企町１１４７－１４先
160-3 農産物直売所西側フェンス,35.6325444444444,139.319324166667,ポスター掲示場,小比企町３５０６－３先
160-4 聖パウロ病院東側三叉路付近緑地,35.6397677777778,139.317332777778,ポスター掲示場,小比企町５４１－７先
160-5 由井第三小学校東側フェンス,35.6428713888889,139.328040555556,ポスター掲示場,小比企町１２０１
160-6 小比企稲荷前公園北側,35.6432969444444,139.329369444444,ポスター掲示場,小比企町１１４０－１
161-1 由井事務所北側フェンス,35.6434405555556,139.333328055556,ポスター掲示場,片倉町１１９－４
161-2 來光寺公園北側,35.6428461111111,139.343331944444,ポスター掲示場,片倉町４４９
161-3 ＪＲ片倉駅北口フェンス,35.6398288888889,139.341313888889,ポスター掲示場,片倉町７１８
161-4 片倉かまぬき公園西側擁壁植込,35.6361633333333,139.343263888889,ポスター掲示場,片倉町１１７５－１
161-5 由井市民センター西側塀,35.6410208333333,139.340015555556,ポスター掲示場,片倉町７０２－１
161-6 由井かたくら学童保育所北側フェンス前,35.6366091666667,139.337296388889,ポスター掲示場,西片倉町１－１４－１
161-7 片倉つどいの森公園西側,35.6372422222222,139.3298,ポスター掲示場,片倉町３５０６
161-8 川久保公園東側フェンス,35.6413513888889,139.340707777778,ポスター掲示場,片倉町７０２
162-1 みなみ野小学校正門横植込,35.6324505555556,139.323083055556,ポスター掲示場,みなみ野６－１４－１
162-2 みなみ野駅西口ロータリー植込,35.6308994444444,139.330161111111,ポスター掲示場,みなみ野１－２
162-3 兵衛下平公園南側,35.6280797222222,139.330278055556,ポスター掲示場,兵衛１－８
162-4 みなみ野かしのき公園西側,35.6279619444444,139.320268055556,ポスター掲示場,みなみ野４－２６
162-5 みなみ野毘沙門の丘緑地西側,35.6289347222222,139.327661388889,ポスター掲示場,みなみ野２－９
162-6 栃谷戸公園東側植込,35.6292286111111,139.318545277778,ポスター掲示場,みなみ野５－２９
162-7 みなみ野君田小学校東側フェンス,35.6273477777778,139.325853611111,ポスター掲示場,みなみ野４－３－１
162-8 みなみ野菖蒲谷戸公園北西側,35.6292258333333,139.324685277778,ポスター掲示場,みなみ野３－１３
162-9 みなみ野けやき公園南側,35.6316044444444,139.321267777778,ポスター掲示場,みなみ野６－１３
163-1 片倉まちの広場東側農地,35.6329022222222,139.347257222222,ポスター掲示場,片倉町１２２１－１７先
163-2 片倉台小学校北側植込,35.6317308333333,139.346611388889,ポスター掲示場,片倉町１３１８
163-3 都立片倉高校北東側ネットフェンス,35.6303644444444,139.341261666667,ポスター掲示場,片倉町１６４３
163-4 片倉台すずかけ公園,35.6351480555556,139.346441944444,ポスター掲示場,片倉町９３７－１０４
163-5 片倉台中央公園東側,35.6291880555556,139.347761666667,ポスター掲示場,片倉町１３３３－６１
163-6 片倉台坂の上公園東側,35.6280341666667,139.345903611111,ポスター掲示場,片倉町１３９４－６１
163-7 片倉台藤美公園南側,35.6397830555556,139.344836666667,ポスター掲示場,打越町８８８－１２２
164-1 七国公園北東,35.6164427777778,139.324595555556,ポスター掲示場,七国３－５０－１先
164-2 七国第四緑地東側植込,35.6201066666667,139.32146,ポスター掲示場,七国５－２８
164-3 宇津貫公園北側植込,35.6253541666667,139.325541944444,ポスター掲示場,七国６－１
164-4 宇津貫公園南西側植込,35.6239827777778,139.324579166667,ポスター掲示場,七国６－１
164-5 七国君田公園北西側フェンス,35.6240622222222,139.322665833333,ポスター掲示場,七国６－２５
164-6 七国の丘公園西側角,35.6206066666667,139.324111666667,ポスター掲示場,七国２－１３
164-7 兵衛和田内公園南西側,35.6223936111111,139.332484722222,ポスター掲示場,兵衛２－８
164-8 七国シフォンの丘公園,35.6180047222222,139.32485,ポスター掲示場,七国３－４２
170-1 北野公園西側歩道と公園の境,35.6495008333333,139.358364722222,ポスター掲示場,北野町５８５－１
170-2 由井第一小学校北門西側フェンス,35.6459791666667,139.355893333333,ポスター掲示場,打越町３４８－１
170-3 北野駅南口ロータリー植込内,35.6448125,139.352710833333,ポスター掲示場,打越町２００１－１８先
170-4 北野事務所正門西側フェンス,35.6459658333333,139.353089444444,ポスター掲示場,北野町５４９－５
170-5 打越中学校南門西側フェンス,35.6445766666667,139.357377777778,ポスター掲示場,打越町３４９－１
170-6 岸田公園東側,35.6492186111111,139.353772222222,ポスター掲示場,北野町５６９－９先
170-7 信号「新浅川橋南」東側フェンス,35.6529458333333,139.354030555556,ポスター掲示場,北野町５９１－２
170-8 和田公園北西植込,35.6518691666667,139.349705555556,ポスター掲示場,北野町５１３－２２先
171-1 長沼小学校西側道路沿いフェンス,35.6420819444444,139.364484722222,ポスター掲示場,長沼町７０７－３
171-2 ほたる公園南側フェンス,35.6424130555556,139.3710125,ポスター掲示場,長沼町２０３－１先
171-3 向河原公園南側,35.6462222222222,139.362393333333,ポスター掲示場,長沼町１３０２－３先
171-4 春日橋南駐車場フェンス,35.6441613888889,139.361340833333,ポスター掲示場,長沼町８１０先
171-5 長沼駅北口西側ネットフェンス,35.6428280555556,139.366653333333,ポスター掲示場,長沼町７０２－２８
171-6 長沼両田公園西側フェンス,35.6423283333333,139.375721666667,ポスター掲示場,長沼町１０４－２８４先
171-7 長沼山下公園南側,35.6429511111111,139.363813888889,ポスター掲示場,長沼町７９３－３６先
171-8 下谷戸公園東側フェンス,35.6416641666667,139.372328611111,ポスター掲示場,長沼町２７２－４先
172-1 絹ヶ丘緑地北東側フェンス,35.6366916666667,139.357934166667,ポスター掲示場,絹ヶ丘２－１３－４
172-2 絹ヶ丘給水所フェンス,35.6347141666667,139.363281944444,ポスター掲示場,絹ヶ丘１－７３
172-3 ディスカウントストア南側市道フェンス,35.6416963888889,139.3617675,ポスター掲示場,絹ヶ丘１－７－７先
172-4 絹ヶ丘３－１空地,35.6355819444444,139.362536111111,ポスター掲示場,絹ヶ丘３－１
172-5 北野台公園東側フェンス,35.6377761111111,139.36213,ポスター掲示場,絹ヶ丘１－４８－８
172-6 北野台とりよせ公園バス停東側,35.6353513888889,139.356454444444,ポスター掲示場,北野台１－１
172-7 絹ヶ丘緑地東側ネットフェンス,35.6352305555556,139.359389166667,ポスター掲示場,絹ヶ丘２－４８先
173-1 西武北野台中央公園南側バス停脇,35.6279947222222,139.352243333333,ポスター掲示場,北野台４－２０
173-2 打越南部公園東側,35.6314475,139.349721111111,ポスター掲示場,北野台５－４２
173-3 北野台ながれの公園北側,35.6317655555556,139.355996111111,ポスター掲示場,北野台１－３１
173-4 北野台こもれび公園北側,35.626595,139.354092222222,ポスター掲示場,北野台２－２９－９先
173-5 打越岡谷公園南側フェンス,35.6323744444444,139.352281944444,ポスター掲示場,北野台５－２１
173-6 高嶺小学校南側,35.6276944444444,139.350643888889,ポスター掲示場,北野台４－２１－１
173-7 北野台中央公園北西側,35.6293044444444,139.352009722222,ポスター掲示場,北野台４－２０
173-8 北野台ひざかり公園北側,35.6260947222222,139.3521325,ポスター掲示場,北野台３－３０
180-1 バス停「北八王子駅入口」前,35.6680111111111,139.358795277778,ポスター掲示場,石川町２１０３－３先
180-2 第八小学校正門脇,35.6713872222222,139.361108333333,ポスター掲示場,石川町２０６５
180-3 北八王子駅ロータリー外緑地,35.6696875,139.362886388889,ポスター掲示場,石川町２９５３－１先
180-4 都立小宮公園大谷弁天池南東,35.6712747222222,139.344060833333,ポスター掲示場,暁町２－４１
180-5 東海大学八王子病院入口向かい側フェンス,35.6728705555556,139.357263333333,ポスター掲示場,石川町１８３８
180-6 前大谷公園北側,35.6706322222222,139.345890277778,ポスター掲示場,大谷町７６８－７先
180-7 大矢化学工業（株）交差点フェンス,35.6752405555556,139.370739722222,ポスター掲示場,石川町２９７３－１
180-8 石川あさくらの公園向かい,35.6735997222222,139.360056388889,ポスター掲示場,石川町１９２４－５先
181-1 石川市民センター正面玄関脇花壇,35.6802805555556,139.364645277778,ポスター掲示場,石川町４３８
181-2 石川桑原公園西側フェンス,35.6780855555556,139.368083055556,ポスター掲示場,石川町１２４５－３０先
181-3 クリエイトＳ・Ｄ八王子小宮町店前都道フェンス,35.6862413888889,139.371225833333,ポスター掲示場,小宮町８４４－２先
181-4 小宮会館,35.6877461111111,139.37014,ポスター掲示場,小宮町８７６－１
181-5 小宮駅南口駅前ロータリー,35.6854641666667,139.368306666667,ポスター掲示場,小宮町１１６５－２先
181-6 八王子水再生センター南側外周フェンス,35.6901597222222,139.368664444444,ポスター掲示場,小宮町５０１番地
181-7 鶴見児童遊園北側,35.682255,139.370623055556,ポスター掲示場,石川町７５９先
181-8 八石公園北側,35.6906861111111,139.364648888889,ポスター掲示場,小宮町６３８先
182-1 宇津木台中公園北側フェンス,35.6887063888889,139.358546111111,ポスター掲示場,久保山町２－４４
182-2 中村第２まちの広場北東入口フェンス,35.6811005555556,139.349620555556,ポスター掲示場,宇津木町５７先
182-3 消防団第４分団第６部詰所北側歩道,35.6921363888889,139.357102222222,ポスター掲示場,平町２３５－１先
182-4 宇津木台緑地南側,35.6899338888889,139.354363888889,ポスター掲示場,久保山町２－２６－７先
182-5 滝山台丸山公園西側,35.6907547222222,139.3516175,ポスター掲示場,丸山町１２－５先
182-6 宇津木台小学校北側入口フェンス,35.6871786111111,139.353985833333,ポスター掲示場,久保山町２－１８
182-7 久保山公園東側トイレ前,35.6847180555556,139.356545,ポスター掲示場,久保山町２－４８
182-8 石川中学校北側フェンス前,35.6839205555556,139.357646111111,ポスター掲示場,久保山町２－５５
183-1 新田公園北側,35.6665422222222,139.368232222222,ポスター掲示場,高倉町４２
183-2 松風公園西側,35.6636263888889,139.364288333333,ポスター掲示場,高倉町６３
183-3 高倉緑地北東側,35.6697066666667,139.370415,ポスター掲示場,高倉町２３－３９先
183-4 都立八王子東高校北西フェンス,35.6625519444444,139.363136666667,ポスター掲示場,高倉町６８
183-5 高倉南公園西側,35.6614269444444,139.362721944444,ポスター掲示場,高倉町６９
183-6 八王子大和田町アパート１号棟北側,35.6651877777778,139.362297777778,ポスター掲示場,大和田町１－１－１
183-7 高倉小学校南側,35.6623369444444,139.366115,ポスター掲示場,高倉町６７


